<?xml version="1.0" encoding="UTF-8"?>
<gpx version="1.1" creator="Season Book sample" xmlns="http://www.topografix.com/GPX/1/1">
<metadata><name>Sample 10K run</name><time>2026-09-13T07:30:00Z</time></metadata>
<trk><name>Sample 10K run</name><type>running</type><trkseg>
<trkpt lat="45.800000" lon="6.120567"><ele>420.0</ele><time>2026-09-13T07:30:00Z</time></trkpt>
<trkpt lat="45.800450" lon="6.120556"><ele>422.4</ele><time>2026-09-13T07:30:14Z</time></trkpt>
<trkpt lat="45.800900" lon="6.120526"><ele>424.7</ele><time>2026-09-13T07:30:29Z</time></trkpt>
<trkpt lat="45.801349" lon="6.120475"><ele>427.0</ele><time>2026-09-13T07:30:44Z</time></trkpt>
<trkpt lat="45.801797" lon="6.120404"><ele>429.2</ele><time>2026-09-13T07:30:59Z</time></trkpt>
<trkpt lat="45.802243" lon="6.120313"><ele>431.3</ele><time>2026-09-13T07:31:13Z</time></trkpt>
<trkpt lat="45.802687" lon="6.120202"><ele>433.4</ele><time>2026-09-13T07:31:28Z</time></trkpt>
<trkpt lat="45.803128" lon="6.120071"><ele>435.3</ele><time>2026-09-13T07:31:43Z</time></trkpt>
<trkpt lat="45.803566" lon="6.119920"><ele>437.1</ele><time>2026-09-13T07:31:58Z</time></trkpt>
<trkpt lat="45.804000" lon="6.119750"><ele>438.8</ele><time>2026-09-13T07:32:12Z</time></trkpt>
<trkpt lat="45.804431" lon="6.119560"><ele>440.2</ele><time>2026-09-13T07:32:27Z</time></trkpt>
<trkpt lat="45.804857" lon="6.119351"><ele>441.5</ele><time>2026-09-13T07:32:42Z</time></trkpt>
<trkpt lat="45.805278" lon="6.119122"><ele>442.6</ele><time>2026-09-13T07:32:57Z</time></trkpt>
<trkpt lat="45.805694" lon="6.118875"><ele>443.5</ele><time>2026-09-13T07:33:11Z</time></trkpt>
<trkpt lat="45.806105" lon="6.118609"><ele>444.2</ele><time>2026-09-13T07:33:26Z</time></trkpt>
<trkpt lat="45.806509" lon="6.118325"><ele>444.7</ele><time>2026-09-13T07:33:41Z</time></trkpt>
<trkpt lat="45.806908" lon="6.118023"><ele>445.0</ele><time>2026-09-13T07:33:56Z</time></trkpt>
<trkpt lat="45.807299" lon="6.117702"><ele>445.0</ele><time>2026-09-13T07:34:10Z</time></trkpt>
<trkpt lat="45.807683" lon="6.117365"><ele>444.8</ele><time>2026-09-13T07:34:25Z</time></trkpt>
<trkpt lat="45.808059" lon="6.117010"><ele>444.4</ele><time>2026-09-13T07:34:40Z</time></trkpt>
<trkpt lat="45.808428" lon="6.116639"><ele>443.8</ele><time>2026-09-13T07:34:55Z</time></trkpt>
<trkpt lat="45.808788" lon="6.116251"><ele>442.9</ele><time>2026-09-13T07:35:09Z</time></trkpt>
<trkpt lat="45.809140" lon="6.115847"><ele>441.9</ele><time>2026-09-13T07:35:24Z</time></trkpt>
<trkpt lat="45.809482" lon="6.115427"><ele>440.7</ele><time>2026-09-13T07:35:39Z</time></trkpt>
<trkpt lat="45.809815" lon="6.114992"><ele>439.3</ele><time>2026-09-13T07:35:54Z</time></trkpt>
<trkpt lat="45.810139" lon="6.114543"><ele>437.7</ele><time>2026-09-13T07:36:08Z</time></trkpt>
<trkpt lat="45.810452" lon="6.114079"><ele>435.9</ele><time>2026-09-13T07:36:23Z</time></trkpt>
<trkpt lat="45.810755" lon="6.113601"><ele>434.1</ele><time>2026-09-13T07:36:38Z</time></trkpt>
<trkpt lat="45.811048" lon="6.113110"><ele>432.0</ele><time>2026-09-13T07:36:53Z</time></trkpt>
<trkpt lat="45.811329" lon="6.112605"><ele>429.9</ele><time>2026-09-13T07:37:07Z</time></trkpt>
<trkpt lat="45.811600" lon="6.112089"><ele>427.7</ele><time>2026-09-13T07:37:22Z</time></trkpt>
<trkpt lat="45.811859" lon="6.111560"><ele>425.5</ele><time>2026-09-13T07:37:37Z</time></trkpt>
<trkpt lat="45.812106" lon="6.111020"><ele>423.1</ele><time>2026-09-13T07:37:52Z</time></trkpt>
<trkpt lat="45.812342" lon="6.110469"><ele>420.8</ele><time>2026-09-13T07:38:06Z</time></trkpt>
<trkpt lat="45.812565" lon="6.109908"><ele>418.4</ele><time>2026-09-13T07:38:21Z</time></trkpt>
<trkpt lat="45.812776" lon="6.109337"><ele>416.1</ele><time>2026-09-13T07:38:36Z</time></trkpt>
<trkpt lat="45.812974" lon="6.108757"><ele>413.8</ele><time>2026-09-13T07:38:51Z</time></trkpt>
<trkpt lat="45.813159" lon="6.108168"><ele>411.5</ele><time>2026-09-13T07:39:05Z</time></trkpt>
<trkpt lat="45.813331" lon="6.107571"><ele>409.4</ele><time>2026-09-13T07:39:20Z</time></trkpt>
<trkpt lat="45.813491" lon="6.106967"><ele>407.3</ele><time>2026-09-13T07:39:35Z</time></trkpt>
<trkpt lat="45.813637" lon="6.106355"><ele>405.3</ele><time>2026-09-13T07:39:50Z</time></trkpt>
<trkpt lat="45.813769" lon="6.105738"><ele>403.5</ele><time>2026-09-13T07:40:04Z</time></trkpt>
<trkpt lat="45.813888" lon="6.105115"><ele>401.8</ele><time>2026-09-13T07:40:19Z</time></trkpt>
<trkpt lat="45.813993" lon="6.104486"><ele>400.2</ele><time>2026-09-13T07:40:34Z</time></trkpt>
<trkpt lat="45.814084" lon="6.103854"><ele>398.9</ele><time>2026-09-13T07:40:49Z</time></trkpt>
<trkpt lat="45.814162" lon="6.103217"><ele>397.7</ele><time>2026-09-13T07:41:03Z</time></trkpt>
<trkpt lat="45.814225" lon="6.102578"><ele>396.8</ele><time>2026-09-13T07:41:18Z</time></trkpt>
<trkpt lat="45.814275" lon="6.101935"><ele>396.0</ele><time>2026-09-13T07:41:33Z</time></trkpt>
<trkpt lat="45.814310" lon="6.101291"><ele>395.4</ele><time>2026-09-13T07:41:48Z</time></trkpt>
<trkpt lat="45.814331" lon="6.100646"><ele>395.1</ele><time>2026-09-13T07:42:02Z</time></trkpt>
<trkpt lat="45.814338" lon="6.100000"><ele>395.0</ele><time>2026-09-13T07:42:17Z</time></trkpt>
<trkpt lat="45.814331" lon="6.099354"><ele>395.1</ele><time>2026-09-13T07:42:32Z</time></trkpt>
<trkpt lat="45.814310" lon="6.098709"><ele>395.4</ele><time>2026-09-13T07:42:47Z</time></trkpt>
<trkpt lat="45.814275" lon="6.098065"><ele>396.0</ele><time>2026-09-13T07:43:01Z</time></trkpt>
<trkpt lat="45.814225" lon="6.097422"><ele>396.8</ele><time>2026-09-13T07:43:16Z</time></trkpt>
<trkpt lat="45.814162" lon="6.096783"><ele>397.7</ele><time>2026-09-13T07:43:31Z</time></trkpt>
<trkpt lat="45.814084" lon="6.096146"><ele>398.9</ele><time>2026-09-13T07:43:46Z</time></trkpt>
<trkpt lat="45.813993" lon="6.095514"><ele>400.2</ele><time>2026-09-13T07:44:00Z</time></trkpt>
<trkpt lat="45.813888" lon="6.094885"><ele>401.8</ele><time>2026-09-13T07:44:15Z</time></trkpt>
<trkpt lat="45.813769" lon="6.094262"><ele>403.5</ele><time>2026-09-13T07:44:30Z</time></trkpt>
<trkpt lat="45.813637" lon="6.093645"><ele>405.3</ele><time>2026-09-13T07:44:45Z</time></trkpt>
<trkpt lat="45.813491" lon="6.093033"><ele>407.3</ele><time>2026-09-13T07:44:59Z</time></trkpt>
<trkpt lat="45.813331" lon="6.092429"><ele>409.4</ele><time>2026-09-13T07:45:14Z</time></trkpt>
<trkpt lat="45.813159" lon="6.091832"><ele>411.5</ele><time>2026-09-13T07:45:29Z</time></trkpt>
<trkpt lat="45.812974" lon="6.091243"><ele>413.8</ele><time>2026-09-13T07:45:44Z</time></trkpt>
<trkpt lat="45.812776" lon="6.090663"><ele>416.1</ele><time>2026-09-13T07:45:58Z</time></trkpt>
<trkpt lat="45.812565" lon="6.090092"><ele>418.4</ele><time>2026-09-13T07:46:13Z</time></trkpt>
<trkpt lat="45.812342" lon="6.089531"><ele>420.8</ele><time>2026-09-13T07:46:28Z</time></trkpt>
<trkpt lat="45.812106" lon="6.088980"><ele>423.1</ele><time>2026-09-13T07:46:43Z</time></trkpt>
<trkpt lat="45.811859" lon="6.088440"><ele>425.5</ele><time>2026-09-13T07:46:57Z</time></trkpt>
<trkpt lat="45.811600" lon="6.087911"><ele>427.7</ele><time>2026-09-13T07:47:12Z</time></trkpt>
<trkpt lat="45.811329" lon="6.087395"><ele>429.9</ele><time>2026-09-13T07:47:27Z</time></trkpt>
<trkpt lat="45.811048" lon="6.086890"><ele>432.0</ele><time>2026-09-13T07:47:42Z</time></trkpt>
<trkpt lat="45.810755" lon="6.086399"><ele>434.1</ele><time>2026-09-13T07:47:56Z</time></trkpt>
<trkpt lat="45.810452" lon="6.085921"><ele>435.9</ele><time>2026-09-13T07:48:11Z</time></trkpt>
<trkpt lat="45.810139" lon="6.085457"><ele>437.7</ele><time>2026-09-13T07:48:26Z</time></trkpt>
<trkpt lat="45.809815" lon="6.085008"><ele>439.3</ele><time>2026-09-13T07:48:41Z</time></trkpt>
<trkpt lat="45.809482" lon="6.084573"><ele>440.7</ele><time>2026-09-13T07:48:55Z</time></trkpt>
<trkpt lat="45.809140" lon="6.084153"><ele>441.9</ele><time>2026-09-13T07:49:10Z</time></trkpt>
<trkpt lat="45.808788" lon="6.083749"><ele>442.9</ele><time>2026-09-13T07:49:25Z</time></trkpt>
<trkpt lat="45.808428" lon="6.083361"><ele>443.8</ele><time>2026-09-13T07:49:40Z</time></trkpt>
<trkpt lat="45.808059" lon="6.082990"><ele>444.4</ele><time>2026-09-13T07:49:54Z</time></trkpt>
<trkpt lat="45.807683" lon="6.082635"><ele>444.8</ele><time>2026-09-13T07:50:09Z</time></trkpt>
<trkpt lat="45.807299" lon="6.082298"><ele>445.0</ele><time>2026-09-13T07:50:24Z</time></trkpt>
<trkpt lat="45.806908" lon="6.081977"><ele>445.0</ele><time>2026-09-13T07:50:39Z</time></trkpt>
<trkpt lat="45.806509" lon="6.081675"><ele>444.7</ele><time>2026-09-13T07:50:53Z</time></trkpt>
<trkpt lat="45.806105" lon="6.081391"><ele>444.2</ele><time>2026-09-13T07:51:08Z</time></trkpt>
<trkpt lat="45.805694" lon="6.081125"><ele>443.5</ele><time>2026-09-13T07:51:23Z</time></trkpt>
<trkpt lat="45.805278" lon="6.080878"><ele>442.6</ele><time>2026-09-13T07:51:38Z</time></trkpt>
<trkpt lat="45.804857" lon="6.080649"><ele>441.5</ele><time>2026-09-13T07:51:52Z</time></trkpt>
<trkpt lat="45.804431" lon="6.080440"><ele>440.2</ele><time>2026-09-13T07:52:07Z</time></trkpt>
<trkpt lat="45.804000" lon="6.080250"><ele>438.8</ele><time>2026-09-13T07:52:22Z</time></trkpt>
<trkpt lat="45.803566" lon="6.080080"><ele>437.1</ele><time>2026-09-13T07:52:37Z</time></trkpt>
<trkpt lat="45.803128" lon="6.079929"><ele>435.3</ele><time>2026-09-13T07:52:51Z</time></trkpt>
<trkpt lat="45.802687" lon="6.079798"><ele>433.4</ele><time>2026-09-13T07:53:06Z</time></trkpt>
<trkpt lat="45.802243" lon="6.079687"><ele>431.3</ele><time>2026-09-13T07:53:21Z</time></trkpt>
<trkpt lat="45.801797" lon="6.079596"><ele>429.2</ele><time>2026-09-13T07:53:36Z</time></trkpt>
<trkpt lat="45.801349" lon="6.079525"><ele>427.0</ele><time>2026-09-13T07:53:50Z</time></trkpt>
<trkpt lat="45.800900" lon="6.079474"><ele>424.7</ele><time>2026-09-13T07:54:05Z</time></trkpt>
<trkpt lat="45.800450" lon="6.079444"><ele>422.4</ele><time>2026-09-13T07:54:20Z</time></trkpt>
<trkpt lat="45.800000" lon="6.079433"><ele>420.0</ele><time>2026-09-13T07:54:35Z</time></trkpt>
<trkpt lat="45.799550" lon="6.079444"><ele>417.6</ele><time>2026-09-13T07:54:49Z</time></trkpt>
<trkpt lat="45.799100" lon="6.079474"><ele>415.3</ele><time>2026-09-13T07:55:04Z</time></trkpt>
<trkpt lat="45.798651" lon="6.079525"><ele>413.0</ele><time>2026-09-13T07:55:19Z</time></trkpt>
<trkpt lat="45.798203" lon="6.079596"><ele>410.8</ele><time>2026-09-13T07:55:34Z</time></trkpt>
<trkpt lat="45.797757" lon="6.079687"><ele>408.7</ele><time>2026-09-13T07:55:48Z</time></trkpt>
<trkpt lat="45.797313" lon="6.079798"><ele>406.6</ele><time>2026-09-13T07:56:03Z</time></trkpt>
<trkpt lat="45.796872" lon="6.079929"><ele>404.7</ele><time>2026-09-13T07:56:18Z</time></trkpt>
<trkpt lat="45.796434" lon="6.080080"><ele>402.9</ele><time>2026-09-13T07:56:33Z</time></trkpt>
<trkpt lat="45.796000" lon="6.080250"><ele>401.2</ele><time>2026-09-13T07:56:47Z</time></trkpt>
<trkpt lat="45.795569" lon="6.080440"><ele>399.8</ele><time>2026-09-13T07:57:02Z</time></trkpt>
<trkpt lat="45.795143" lon="6.080649"><ele>398.5</ele><time>2026-09-13T07:57:17Z</time></trkpt>
<trkpt lat="45.794722" lon="6.080878"><ele>397.4</ele><time>2026-09-13T07:57:32Z</time></trkpt>
<trkpt lat="45.794306" lon="6.081125"><ele>396.5</ele><time>2026-09-13T07:57:46Z</time></trkpt>
<trkpt lat="45.793895" lon="6.081391"><ele>395.8</ele><time>2026-09-13T07:58:01Z</time></trkpt>
<trkpt lat="45.793491" lon="6.081675"><ele>395.3</ele><time>2026-09-13T07:58:16Z</time></trkpt>
<trkpt lat="45.793092" lon="6.081977"><ele>395.0</ele><time>2026-09-13T07:58:31Z</time></trkpt>
<trkpt lat="45.792701" lon="6.082298"><ele>395.0</ele><time>2026-09-13T07:58:45Z</time></trkpt>
<trkpt lat="45.792317" lon="6.082635"><ele>395.2</ele><time>2026-09-13T07:59:00Z</time></trkpt>
<trkpt lat="45.791941" lon="6.082990"><ele>395.6</ele><time>2026-09-13T07:59:15Z</time></trkpt>
<trkpt lat="45.791572" lon="6.083361"><ele>396.2</ele><time>2026-09-13T07:59:30Z</time></trkpt>
<trkpt lat="45.791212" lon="6.083749"><ele>397.1</ele><time>2026-09-13T07:59:44Z</time></trkpt>
<trkpt lat="45.790860" lon="6.084153"><ele>398.1</ele><time>2026-09-13T07:59:59Z</time></trkpt>
<trkpt lat="45.790518" lon="6.084573"><ele>399.3</ele><time>2026-09-13T08:00:14Z</time></trkpt>
<trkpt lat="45.790185" lon="6.085008"><ele>400.7</ele><time>2026-09-13T08:00:29Z</time></trkpt>
<trkpt lat="45.789861" lon="6.085457"><ele>402.3</ele><time>2026-09-13T08:00:43Z</time></trkpt>
<trkpt lat="45.789548" lon="6.085921"><ele>404.1</ele><time>2026-09-13T08:00:58Z</time></trkpt>
<trkpt lat="45.789245" lon="6.086399"><ele>405.9</ele><time>2026-09-13T08:01:13Z</time></trkpt>
<trkpt lat="45.788952" lon="6.086890"><ele>408.0</ele><time>2026-09-13T08:01:28Z</time></trkpt>
<trkpt lat="45.788671" lon="6.087395"><ele>410.1</ele><time>2026-09-13T08:01:42Z</time></trkpt>
<trkpt lat="45.788400" lon="6.087911"><ele>412.3</ele><time>2026-09-13T08:01:57Z</time></trkpt>
<trkpt lat="45.788141" lon="6.088440"><ele>414.5</ele><time>2026-09-13T08:02:12Z</time></trkpt>
<trkpt lat="45.787894" lon="6.088980"><ele>416.9</ele><time>2026-09-13T08:02:27Z</time></trkpt>
<trkpt lat="45.787658" lon="6.089531"><ele>419.2</ele><time>2026-09-13T08:02:41Z</time></trkpt>
<trkpt lat="45.787435" lon="6.090092"><ele>421.6</ele><time>2026-09-13T08:02:56Z</time></trkpt>
<trkpt lat="45.787224" lon="6.090663"><ele>423.9</ele><time>2026-09-13T08:03:11Z</time></trkpt>
<trkpt lat="45.787026" lon="6.091243"><ele>426.2</ele><time>2026-09-13T08:03:26Z</time></trkpt>
<trkpt lat="45.786841" lon="6.091832"><ele>428.5</ele><time>2026-09-13T08:03:40Z</time></trkpt>
<trkpt lat="45.786669" lon="6.092429"><ele>430.6</ele><time>2026-09-13T08:03:55Z</time></trkpt>
<trkpt lat="45.786509" lon="6.093033"><ele>432.7</ele><time>2026-09-13T08:04:10Z</time></trkpt>
<trkpt lat="45.786363" lon="6.093645"><ele>434.7</ele><time>2026-09-13T08:04:25Z</time></trkpt>
<trkpt lat="45.786231" lon="6.094262"><ele>436.5</ele><time>2026-09-13T08:04:39Z</time></trkpt>
<trkpt lat="45.786112" lon="6.094885"><ele>438.2</ele><time>2026-09-13T08:04:54Z</time></trkpt>
<trkpt lat="45.786007" lon="6.095514"><ele>439.8</ele><time>2026-09-13T08:05:09Z</time></trkpt>
<trkpt lat="45.785916" lon="6.096146"><ele>441.1</ele><time>2026-09-13T08:05:24Z</time></trkpt>
<trkpt lat="45.785838" lon="6.096783"><ele>442.3</ele><time>2026-09-13T08:05:38Z</time></trkpt>
<trkpt lat="45.785775" lon="6.097422"><ele>443.2</ele><time>2026-09-13T08:05:53Z</time></trkpt>
<trkpt lat="45.785725" lon="6.098065"><ele>444.0</ele><time>2026-09-13T08:06:08Z</time></trkpt>
<trkpt lat="45.785690" lon="6.098709"><ele>444.6</ele><time>2026-09-13T08:06:23Z</time></trkpt>
<trkpt lat="45.785669" lon="6.099354"><ele>444.9</ele><time>2026-09-13T08:06:37Z</time></trkpt>
<trkpt lat="45.785662" lon="6.100000"><ele>445.0</ele><time>2026-09-13T08:06:52Z</time></trkpt>
<trkpt lat="45.785669" lon="6.100646"><ele>444.9</ele><time>2026-09-13T08:07:07Z</time></trkpt>
<trkpt lat="45.785690" lon="6.101291"><ele>444.6</ele><time>2026-09-13T08:07:22Z</time></trkpt>
<trkpt lat="45.785725" lon="6.101935"><ele>444.0</ele><time>2026-09-13T08:07:36Z</time></trkpt>
<trkpt lat="45.785775" lon="6.102578"><ele>443.2</ele><time>2026-09-13T08:07:51Z</time></trkpt>
<trkpt lat="45.785838" lon="6.103217"><ele>442.3</ele><time>2026-09-13T08:08:06Z</time></trkpt>
<trkpt lat="45.785916" lon="6.103854"><ele>441.1</ele><time>2026-09-13T08:08:21Z</time></trkpt>
<trkpt lat="45.786007" lon="6.104486"><ele>439.8</ele><time>2026-09-13T08:08:35Z</time></trkpt>
<trkpt lat="45.786112" lon="6.105115"><ele>438.2</ele><time>2026-09-13T08:08:50Z</time></trkpt>
<trkpt lat="45.786231" lon="6.105738"><ele>436.5</ele><time>2026-09-13T08:09:05Z</time></trkpt>
<trkpt lat="45.786363" lon="6.106355"><ele>434.7</ele><time>2026-09-13T08:09:20Z</time></trkpt>
<trkpt lat="45.786509" lon="6.106967"><ele>432.7</ele><time>2026-09-13T08:09:34Z</time></trkpt>
<trkpt lat="45.786669" lon="6.107571"><ele>430.6</ele><time>2026-09-13T08:09:49Z</time></trkpt>
<trkpt lat="45.786841" lon="6.108168"><ele>428.5</ele><time>2026-09-13T08:10:04Z</time></trkpt>
<trkpt lat="45.787026" lon="6.108757"><ele>426.2</ele><time>2026-09-13T08:10:19Z</time></trkpt>
<trkpt lat="45.787224" lon="6.109337"><ele>423.9</ele><time>2026-09-13T08:10:33Z</time></trkpt>
<trkpt lat="45.787435" lon="6.109908"><ele>421.6</ele><time>2026-09-13T08:10:48Z</time></trkpt>
<trkpt lat="45.787658" lon="6.110469"><ele>419.2</ele><time>2026-09-13T08:11:03Z</time></trkpt>
<trkpt lat="45.787894" lon="6.111020"><ele>416.9</ele><time>2026-09-13T08:11:18Z</time></trkpt>
<trkpt lat="45.788141" lon="6.111560"><ele>414.5</ele><time>2026-09-13T08:11:32Z</time></trkpt>
<trkpt lat="45.788400" lon="6.112089"><ele>412.3</ele><time>2026-09-13T08:11:47Z</time></trkpt>
<trkpt lat="45.788671" lon="6.112605"><ele>410.1</ele><time>2026-09-13T08:12:02Z</time></trkpt>
<trkpt lat="45.788952" lon="6.113110"><ele>408.0</ele><time>2026-09-13T08:12:17Z</time></trkpt>
<trkpt lat="45.789245" lon="6.113601"><ele>405.9</ele><time>2026-09-13T08:12:31Z</time></trkpt>
<trkpt lat="45.789548" lon="6.114079"><ele>404.1</ele><time>2026-09-13T08:12:46Z</time></trkpt>
<trkpt lat="45.789861" lon="6.114543"><ele>402.3</ele><time>2026-09-13T08:13:01Z</time></trkpt>
<trkpt lat="45.790185" lon="6.114992"><ele>400.7</ele><time>2026-09-13T08:13:16Z</time></trkpt>
<trkpt lat="45.790518" lon="6.115427"><ele>399.3</ele><time>2026-09-13T08:13:30Z</time></trkpt>
<trkpt lat="45.790860" lon="6.115847"><ele>398.1</ele><time>2026-09-13T08:13:45Z</time></trkpt>
<trkpt lat="45.791212" lon="6.116251"><ele>397.1</ele><time>2026-09-13T08:14:00Z</time></trkpt>
<trkpt lat="45.791572" lon="6.116639"><ele>396.2</ele><time>2026-09-13T08:14:15Z</time></trkpt>
<trkpt lat="45.791941" lon="6.117010"><ele>395.6</ele><time>2026-09-13T08:14:29Z</time></trkpt>
<trkpt lat="45.792317" lon="6.117365"><ele>395.2</ele><time>2026-09-13T08:14:44Z</time></trkpt>
<trkpt lat="45.792701" lon="6.117702"><ele>395.0</ele><time>2026-09-13T08:14:59Z</time></trkpt>
<trkpt lat="45.793092" lon="6.118023"><ele>395.0</ele><time>2026-09-13T08:15:14Z</time></trkpt>
<trkpt lat="45.793491" lon="6.118325"><ele>395.3</ele><time>2026-09-13T08:15:28Z</time></trkpt>
<trkpt lat="45.793895" lon="6.118609"><ele>395.8</ele><time>2026-09-13T08:15:43Z</time></trkpt>
<trkpt lat="45.794306" lon="6.118875"><ele>396.5</ele><time>2026-09-13T08:15:58Z</time></trkpt>
<trkpt lat="45.794722" lon="6.119122"><ele>397.4</ele><time>2026-09-13T08:16:13Z</time></trkpt>
<trkpt lat="45.795143" lon="6.119351"><ele>398.5</ele><time>2026-09-13T08:16:27Z</time></trkpt>
<trkpt lat="45.795569" lon="6.119560"><ele>399.8</ele><time>2026-09-13T08:16:42Z</time></trkpt>
<trkpt lat="45.796000" lon="6.119750"><ele>401.2</ele><time>2026-09-13T08:16:57Z</time></trkpt>
<trkpt lat="45.796434" lon="6.119920"><ele>402.9</ele><time>2026-09-13T08:17:12Z</time></trkpt>
<trkpt lat="45.796872" lon="6.120071"><ele>404.7</ele><time>2026-09-13T08:17:26Z</time></trkpt>
<trkpt lat="45.797313" lon="6.120202"><ele>406.6</ele><time>2026-09-13T08:17:41Z</time></trkpt>
<trkpt lat="45.797757" lon="6.120313"><ele>408.7</ele><time>2026-09-13T08:17:56Z</time></trkpt>
<trkpt lat="45.798203" lon="6.120404"><ele>410.8</ele><time>2026-09-13T08:18:11Z</time></trkpt>
<trkpt lat="45.798651" lon="6.120475"><ele>413.0</ele><time>2026-09-13T08:18:25Z</time></trkpt>
<trkpt lat="45.799100" lon="6.120526"><ele>415.3</ele><time>2026-09-13T08:18:40Z</time></trkpt>
<trkpt lat="45.799550" lon="6.120556"><ele>417.6</ele><time>2026-09-13T08:18:55Z</time></trkpt>
<trkpt lat="45.800000" lon="6.120567"><ele>420.0</ele><time>2026-09-13T08:19:10Z</time></trkpt>
</trkseg></trk></gpx>
